CCSDS_OEM_VERS = 1.0
CREATION_DATE  = 2017-05-11T11:01:49
ORIGINATOR     = GMAT USER

META_START
OBJECT_NAME          = MOPSSat_alt_35785_km_RAAN_0_080
OBJECT_ID            = SatId
CENTER_NAME          = Earth
REF_FRAME            = EME2000
TIME_SYSTEM          = UTC
START_TIME           = 2017-01-01T00:00:00.000
USEABLE_START_TIME   = 2017-01-01T00:00:00.000
USEABLE_STOP_TIME    = 2017-01-02T00:00:00.000
STOP_TIME            = 2017-01-02T00:00:00.000
INTERPOLATION        = Lagrange
INTERPOLATION_DEGREE = 7 
META_STOP


                                                                                   

2017-01-01T13:17:30.000  -4.010682202189210e+04  -1.424339777020414e+04   1.205029785932241e+00   1.028833145453926e+00  -2.866821773149574e+00   2.268162950453436e-05
2017-01-01T13:17:40.000  -4.009652332277471e+04  -1.427206230350791e+04   1.205256342597702e+00   1.030906560317610e+00  -2.866084552347651e+00   2.262969673287852e-05
2017-01-01T13:17:50.000  -4.008620389207631e+04  -1.430071945722958e+04   1.205482379751014e+00   1.032979456992504e+00  -2.865345844426438e+00   2.257772698128888e-05
2017-01-01T13:18:00.000  -4.007586373503076e+04  -1.432936921637016e+04   1.205707897021457e+00   1.035051834420453e+00  -2.864605649739162e+00   2.252572026967113e-05
2017-01-01T13:18:10.000  -4.006550285688326e+04  -1.435801156593187e+04   1.205932894038488e+00   1.037123691543351e+00  -2.863863968639822e+00   2.247367661796255e-05
2017-01-01T13:18:20.000  -4.005512126285411e+04  -1.438664649102071e+04   1.206157370432566e+00   1.039195027310560e+00  -2.863120801480599e+00   2.242159604594536e-05
2017-01-01T13:18:30.000  -4.004471895816243e+04  -1.441527397677797e+04   1.206381325834597e+00   1.041265840673957e+00  -2.862376148613554e+00   2.236947857337162e-05
2017-01-01T13:18:40.000  -4.003429594802639e+04  -1.444389400838027e+04   1.206604759875933e+00   1.043336130587935e+00  -2.861630010390644e+00   2.231732421996201e-05
2017-01-01T13:18:50.000  -4.002385223763761e+04  -1.447250657110749e+04   1.206827672188890e+00   1.045405896014322e+00  -2.860882387161880e+00   2.226513300528632e-05
2017-01-01T13:19:00.000  -4.001338783219893e+04  -1.450111165024068e+04   1.207050062405960e+00   1.047475135914987e+00  -2.860133279278052e+00   2.221290494894406e-05
2017-01-01T13:19:10.000  -4.000290273692845e+04  -1.452970923105177e+04   1.207271930159741e+00   1.049543849251107e+00  -2.859382687090994e+00   2.216064007058655e-05
2017-01-01T13:19:20.000  -3.999239695706857e+04  -1.455829929877465e+04   1.207493275082673e+00   1.051612034981067e+00  -2.858630610954251e+00   2.210833838995685e-05
2017-01-01T13:19:30.000  -3.998187049789600e+04  -1.458688183858291e+04   1.207714096806915e+00   1.053679692058850e+00  -2.857877051223784e+00   2.205599992694428e-05
2017-01-01T13:19:40.000  -3.997132336469019e+04  -1.461545683567364e+04   1.207934394964968e+00   1.055746819440101e+00  -2.857122008255710e+00   2.200362470142574e-05
2017-01-01T13:19:50.000  -3.996075556287425e+04  -1.464402427489167e+04   1.208154169186825e+00   1.057813416054945e+00  -2.856365482416400e+00   2.195121273397046e-05
2017-01-01T13:20:00.000  -3.995016709784462e+04  -1.467258414118511e+04   1.208373419103444e+00   1.059879480840938e+00  -2.855607474070280e+00   2.189876404498905e-05
2017-01-01T13:20:10.000  -3.993955797503419e+04  -1.470113641943591e+04   1.208592144345448e+00   1.061945012730809e+00  -2.854847983584339e+00   2.184627865504944e-05
2017-01-01T13:20:20.000  -3.992892819966847e+04  -1.472968109511668e+04   1.208810344548162e+00   1.064010010699981e+00  -2.854087011310694e+00   2.179375658365885e-05
2017-01-01T13:20:30.000  -3.991827777700854e+04  -1.475821815363543e+04   1.209028019346589e+00   1.066074473719164e+00  -2.853324557603969e+00   2.174119785047837e-05
2017-01-01T13:20:40.000  -3.990760671229652e+04  -1.478674758048423e+04   1.209245168376556e+00   1.068138400765109e+00  -2.852560622817391e+00   2.168860247504699e-05
2017-01-01T13:20:50.000  -3.989691501089075e+04  -1.481526936086866e+04   1.209461791271828e+00   1.070201790793803e+00  -2.851795207312473e+00   2.163597047746864e-05
2017-01-01T13:21:00.000  -3.988620267816624e+04  -1.484378347998318e+04   1.209677887666275e+00   1.072264642760392e+00  -2.851028311451888e+00   2.158330187790074e-05
2017-01-01T13:21:10.000  -3.987546971951342e+04  -1.487228992301076e+04   1.209893457193838e+00   1.074326955619150e+00  -2.850259935599371e+00   2.153059669655610e-05
2017-01-01T13:21:20.000  -3.986471614044419e+04  -1.490078867484980e+04   1.210108499486532e+00   1.076388728303721e+00  -2.849490080127321e+00   2.147785495420367e-05
2017-01-01T13:21:30.000  -3.985394194645015e+04  -1.492927972048234e+04   1.210323014177166e+00   1.078449959753766e+00  -2.848718745406647e+00   2.142507667149223e-05
2017-01-01T13:21:40.000  -3.984314714305821e+04  -1.495776304482889e+04   1.210537000898267e+00   1.080510648904448e+00  -2.847945931810751e+00   2.137226186921649e-05
2017-01-01T13:21:50.000  -3.983233173558705e+04  -1.498623863339127e+04   1.210750459286906e+00   1.082570794732955e+00  -2.847171639698086e+00   2.131941056713655e-05
2017-01-01T13:22:00.000  -3.982149572939030e+04  -1.501470647160971e+04   1.210963388979866e+00   1.084630396211971e+00  -2.846395869429578e+00   2.126652278515802e-05
2017-01-01T13:22:10.000  -3.981063912980206e+04  -1.504316654500834e+04   1.211175789614742e+00   1.086689452320217e+00  -2.845618621364717e+00   2.121359854306739e-05
2017-01-01T13:22:20.000  -3.979976194227460e+04  -1.507161883882555e+04   1.211387660827121e+00   1.088747962015698e+00  -2.844839895871414e+00   2.116063786120151e-05
2017-01-01T13:22:30.000  -3.978886417227679e+04  -1.510006333828875e+04   1.211599002252695e+00   1.090805924255589e+00  -2.844059693318735e+00   2.110764075995463e-05
2017-01-01T13:22:40.000  -3.977794582529317e+04  -1.512850002861392e+04   1.211809813527239e+00   1.092863337996195e+00  -2.843278014076832e+00   2.105460725977287e-05
2017-01-01T13:22:50.000  -3.976700690693140e+04  -1.515692889473328e+04   1.212020094284646e+00   1.094920202173251e+00  -2.842494858524640e+00   2.100153738167846e-05
2017-01-01T13:23:00.000  -3.975604742277855e+04  -1.518534992166254e+04   1.212229844159594e+00   1.096976515728491e+00  -2.841710227039574e+00   2.094843114656904e-05
2017-01-01T13:23:10.000  -3.974506737845832e+04  -1.521376309435337e+04   1.212439062786475e+00   1.099032277598980e+00  -2.840924120001644e+00   2.089528857549755e-05
2017-01-01T13:23:20.000  -3.973406677937922e+04  -1.524216839834534e+04   1.212647749804184e+00   1.101087486764274e+00  -2.840136537775419e+00   2.084210968844584e-05
2017-01-01T13:23:30.000  -3.972304563098701e+04  -1.527056581911227e+04   1.212855904851314e+00   1.103142142199133e+00  -2.839347480728093e+00   2.078889450555338e-05
2017-01-01T13:23:40.000  -3.971200393869961e+04  -1.529895534223104e+04   1.213063527567395e+00   1.105196242885734e+00  -2.838556949224837e+00   2.073564304680010e-05
2017-01-01T13:23:50.000  -3.970094170808119e+04  -1.532733695292738e+04   1.213270617589524e+00   1.107249787780808e+00  -2.837764943641256e+00   2.068235533285695e-05
2017-01-01T13:24:00.000  -3.968985894469892e+04  -1.535571063645091e+04   1.213477174555161e+00   1.109302775842773e+00  -2.836971464353131e+00   2.062903138438416e-05
2017-01-01T13:24:10.000  -3.967875565415594e+04  -1.538407637798856e+04   1.213683198101480e+00   1.111355206025473e+00  -2.836176511738787e+00   2.057567122219310e-05
2017-01-01T13:24:20.000  -3.966763184207974e+04  -1.541243416269862e+04   1.213888687865653e+00   1.113407077280636e+00  -2.835380086178257e+00   2.052227486718426e-05
2017-01-01T13:24:30.000  -3.965648751411480e+04  -1.544078397572620e+04   1.214093643484933e+00   1.115458388558996e+00  -2.834582188052754e+00   2.046884234031679e-05
2017-01-01T13:24:40.000  -3.964532267590927e+04  -1.546912580223707e+04   1.214298064596902e+00   1.117509138812742e+00  -2.833782817743718e+00   2.041537366254477e-05
2017-01-01T13:24:50.000  -3.963413733310992e+04  -1.549745962743407e+04   1.214501950839615e+00   1.119559326996705e+00  -2.832981975632456e+00   2.036186885478756e-05
2017-01-01T13:25:00.000  -3.962293149134752e+04  -1.552578543658991e+04   1.214705301851807e+00   1.121608952070728e+00  -2.832179662099094e+00   2.030832793786671e-05
2017-01-01T13:25:10.000  -3.961170515627135e+04  -1.555410321496134e+04   1.214908117272282e+00   1.123658012993461e+00  -2.831375877525054e+00   2.025475093266806e-05
2017-01-01T13:25:20.000  -3.960045833339952e+04  -1.558241294816145e+04   1.215110396742545e+00   1.125706508749297e+00  -2.830570622282321e+00   2.020113785943871e-05
2017-01-01T13:25:30.000  -3.958919102830001e+04  -1.561071462170842e+04   1.215312139903604e+00   1.127754438315721e+00  -2.829763896746420e+00   2.014748873863882e-05
2017-01-01T13:25:40.000  -3.957790324652242e+04  -1.563900822119607e+04   1.215513346397188e+00   1.129801800675651e+00  -2.828955701291531e+00   2.009380359062038e-05
2017-01-01T13:25:50.000  -3.956659499386176e+04  -1.566729373163237e+04   1.215714015861038e+00   1.131848594769570e+00  -2.828146036309362e+00   2.004008243687186e-05
2017-01-01T13:26:00.000  -3.955526627609482e+04  -1.569557113810110e+04   1.215914147933616e+00   1.133894819543406e+00  -2.827334902190290e+00   1.998632529877414e-05
2017-01-01T13:26:10.000  -3.954391709904811e+04  -1.572384042559095e+04   1.216113742252888e+00   1.135940473936163e+00  -2.826522299328208e+00   1.993253219791994e-05
2017-01-01T13:26:20.000  -3.953254746841878e+04  -1.575210157944784e+04   1.216312798459571e+00   1.137985556912656e+00  -2.825708228107718e+00   1.987870315527068e-05
2017-01-01T13:26:30.000  -3.952115738992200e+04  -1.578035458500157e+04   1.216511316194439e+00   1.140030067436492e+00  -2.824892688914679e+00   1.982483819184950e-05
